{"type":"FeatureCollection","features":[{"type":"Feature","properties":{"id":"141463","type":"AC; OVERHEAD","status":"IN SERVICE","owner":"POTOMAC ELECTRIC POWER CO","voltage":115,"voltClass":"100-161"},"geometry":{"type":"LineString","coordinates":[[-76.95249,38.89879],[-76.95261,38.89928],[-76.95523,38.90001],[-76.95562,38.89986]]}},{"type":"Feature","properties":{"id":"143785","type":"AC; OVERHEAD","status":"IN SERVICE","owner":"POTOMAC ELECTRIC POWER CO","voltage":230,"voltClass":"220-287"},"geometry":{"type":"LineString","coordinates":[[-76.95776,39.00573],[-76.9581,39.00534],[-76.95821,39.00515],[-76.95921,39.0041],[-76.96121,39.00098],[-76.96291,38.99831],[-76.96434,38.99606],[-76.96632,38.99298],[-76.96778,38.99067],[-76.9692,38.98844],[-76.97054,38.98634],[-76.97255,38.9844],[-76.97424,38.98278],[-76.97637,38.98074],[-76.97809,38.97907],[-76.98118,38.97775],[-76.9837,38.97669],[-76.98604,38.97568],[-76.98793,38.97443],[-76.98986,38.97315],[-76.99201,38.97172],[-76.99489,38.97121],[-76.99677,38.97036],[-76.99735,38.97017]]}},{"type":"Feature","properties":{"id":"147008","type":"AC; OVERHEAD","status":"IN SERVICE","owner":"VIRGINIA ELECTRIC & POWER CO","voltage":230,"voltClass":"220-287"},"geometry":{"type":"LineString","coordinates":[[-77.05485,38.79708],[-77.05522,38.79691],[-77.05525,38.79656],[-77.05513,38.79606],[-77.05551,38.79526],[-77.06078,38.79607],[-77.06053,38.79716],[-77.06023,38.79908],[-77.06026,38.79915]]}},{"type":"Feature","properties":{"id":"156180","type":"AC; OVERHEAD","status":"IN SERVICE","owner":"VIRGINIA ELECTRIC & POWER CO","voltage":230,"voltClass":"220-287"},"geometry":{"type":"LineString","coordinates":[[-77.05198,38.82052],[-77.05196,38.82047],[-77.06026,38.79915]]}},{"type":"Feature","properties":{"id":"156182","type":"AC; OVERHEAD","status":"IN SERVICE","owner":"VIRGINIA ELECTRIC & POWER CO","voltage":230,"voltClass":"220-287"},"geometry":{"type":"LineString","coordinates":[[-77.06026,38.79915],[-77.06026,38.79938],[-77.05198,38.82052]]}},{"type":"Feature","properties":{"id":"157382","type":"AC; OVERHEAD","status":"IN SERVICE","owner":"VIRGINIA ELECTRIC & POWER CO","voltage":230,"voltClass":"220-287"},"geometry":{"type":"LineString","coordinates":[[-77.05198,38.82052],[-77.05095,38.8402],[-77.05087,38.84028]]}},{"type":"Feature","properties":{"id":"157383","type":"AC; OVERHEAD","status":"IN SERVICE","owner":"VIRGINIA ELECTRIC & POWER CO","voltage":230,"voltClass":"220-287"},"geometry":{"type":"LineString","coordinates":[[-77.05087,38.84028],[-77.05194,38.82057],[-77.05198,38.82052]]}},{"type":"Feature","properties":{"id":"159814","type":"AC; UNDERGROUND","status":"IN SERVICE","owner":"POTOMAC ELECTRIC POWER CO","voltage":230,"voltClass":"220-287"},"geometry":{"type":"LineString","coordinates":[[-76.87764,38.8801],[-76.95249,38.89879]]}},{"type":"Feature","properties":{"id":"159773","type":"AC; UNDERGROUND","status":"IN SERVICE","owner":"POTOMAC ELECTRIC POWER CO","voltage":138,"voltClass":"100-161"},"geometry":{"type":"LineString","coordinates":[[-77.14511,39.03146],[-77.10034,38.98875]]}},{"type":"Feature","properties":{"id":"159774","type":"AC; UNDERGROUND","status":"IN SERVICE","owner":"POTOMAC ELECTRIC POWER CO","voltage":138,"voltClass":"100-161"},"geometry":{"type":"LineString","coordinates":[[-77.10034,38.98875],[-77.1234,39.01127],[-77.14511,39.03146]]}},{"type":"Feature","properties":{"id":"159806","type":"AC; UNDERGROUND","status":"IN SERVICE","owner":"POTOMAC ELECTRIC POWER CO","voltage":138,"voltClass":"100-161"},"geometry":{"type":"LineString","coordinates":[[-77.02553,38.90391],[-77.04845,38.90701]]}},{"type":"Feature","properties":{"id":"159804","type":"AC; UNDERGROUND","status":"IN SERVICE","owner":"POTOMAC ELECTRIC POWER CO","voltage":230,"voltClass":"220-287"},"geometry":{"type":"LineString","coordinates":[[-76.95894,38.77336],[-76.98268,38.84552]]}},{"type":"Feature","properties":{"id":"159805","type":"AC; UNDERGROUND","status":"IN SERVICE","owner":"POTOMAC ELECTRIC POWER CO","voltage":230,"voltClass":"220-287"},"geometry":{"type":"LineString","coordinates":[[-76.98268,38.84552],[-76.97126,38.80993],[-76.95894,38.77336]]}},{"type":"Feature","properties":{"id":"159807","type":"AC; UNDERGROUND","status":"IN SERVICE","owner":"POTOMAC ELECTRIC POWER CO","voltage":138,"voltClass":"100-161"},"geometry":{"type":"LineString","coordinates":[[-77.0114,38.867],[-77.02553,38.90391]]}},{"type":"Feature","properties":{"id":"159808","type":"AC; UNDERGROUND","status":"IN SERVICE","owner":"POTOMAC ELECTRIC POWER CO","voltage":138,"voltClass":"100-161"},"geometry":{"type":"LineString","coordinates":[[-77.02553,38.90391],[-77.01766,38.88422],[-77.0114,38.867]]}},{"type":"Feature","properties":{"id":"159809","type":"AC; UNDERGROUND","status":"IN SERVICE","owner":"POTOMAC ELECTRIC POWER CO","voltage":230,"voltClass":"220-287"},"geometry":{"type":"LineString","coordinates":[[-76.87764,38.8801],[-77.0114,38.867]]}},{"type":"Feature","properties":{"id":"106468","type":"AC; OVERHEAD","status":"IN SERVICE","owner":"POTOMAC ELECTRIC POWER CO","voltage":115,"voltClass":"100-161"},"geometry":{"type":"LineString","coordinates":[[-76.95802,38.89738],[-76.95827,38.89707],[-76.95785,38.89707],[-76.95676,38.89723],[-76.95291,38.89736],[-76.95043,38.89765],[-76.94901,38.89772],[-76.94728,38.89895],[-76.94156,38.90336],[-76.93518,38.90835],[-76.93317,38.90986],[-76.93196,38.91055],[-76.93156,38.91077],[-76.93078,38.91117],[-76.92997,38.91154],[-76.92914,38.91189],[-76.92828,38.91221],[-76.92742,38.91251],[-76.92655,38.91282],[-76.92569,38.91312],[-76.92406,38.91369],[-76.9232,38.91398],[-76.92233,38.91429],[-76.92115,38.9147],[-76.9206,38.9149],[-76.91974,38.9152],[-76.91887,38.9155],[-76.918,38.91581],[-76.91713,38.91611],[-76.91627,38.91641],[-76.91541,38.91671],[-76.91466,38.91697],[-76.9138,38.91727],[-76.91294,38.91758],[-76.91207,38.91788],[-76.91168,38.91795],[-76.91135,38.91728],[-76.911,38.91737]]}},{"type":"Feature","properties":{"id":"159812","type":"AC; UNDERGROUND","status":"IN SERVICE","owner":"POTOMAC ELECTRIC POWER CO","voltage":230,"voltClass":"220-287"},"geometry":{"type":"LineString","coordinates":[[-77.02558,38.81679],[-76.95894,38.77336]]}},{"type":"Feature","properties":{"id":"159813","type":"AC; UNDERGROUND","status":"IN SERVICE","owner":null,"voltage":230,"voltClass":"220-287"},"geometry":{"type":"LineString","coordinates":[[-77.02558,38.81679],[-77.04207,38.82089]]}},{"type":"Feature","properties":{"id":"105328","type":"AC; OVERHEAD","status":"IN SERVICE","owner":"POTOMAC ELECTRIC POWER CO","voltage":115,"voltClass":"100-161"},"geometry":{"type":"LineString","coordinates":[[-76.95802,38.89738],[-76.95784,38.89772],[-76.95683,38.89741],[-76.95303,38.89759],[-76.95249,38.89879]]}},{"type":"Feature","properties":{"id":"118290","type":"AC; OVERHEAD","status":"IN SERVICE","owner":"POTOMAC ELECTRIC POWER CO","voltage":115,"voltClass":"100-161"},"geometry":{"type":"LineString","coordinates":[[-76.95802,38.89738],[-76.95816,38.89776],[-76.95784,38.89778],[-76.95682,38.89745],[-76.95305,38.89765],[-76.95249,38.89879]]}},{"type":"Feature","properties":{"id":"118366","type":"AC; OVERHEAD","status":"IN SERVICE","owner":"POTOMAC ELECTRIC POWER CO","voltage":115,"voltClass":"100-161"},"geometry":{"type":"LineString","coordinates":[[-76.89752,38.92907],[-76.89738,38.92859],[-76.89825,38.92769],[-76.89886,38.92706],[-76.89946,38.92644],[-76.90006,38.92582],[-76.90067,38.92519],[-76.90128,38.92456],[-76.90173,38.92408],[-76.90256,38.92325],[-76.90345,38.92241],[-76.9041,38.92186],[-76.90478,38.92134],[-76.90549,38.92085],[-76.90624,38.92038],[-76.90701,38.91994],[-76.9078,38.91953],[-76.90863,38.91915],[-76.90947,38.91881],[-76.91034,38.91848],[-76.91093,38.91822],[-76.91075,38.91762],[-76.91065,38.91747],[-76.911,38.91737]]}},{"type":"Feature","properties":{"id":"159847","type":"AC; OVERHEAD","status":"IN SERVICE","owner":"POTOMAC ELECTRIC POWER CO","voltage":138,"voltClass":"100-161"},"geometry":{"type":"LineString","coordinates":[[-77.0114,38.867],[-76.99854,38.8763]]}},{"type":"Feature","properties":{"id":"162491","type":"AC; OVERHEAD","status":"IN SERVICE","owner":"POTOMAC ELECTRIC POWER CO","voltage":138,"voltClass":"100-161"},"geometry":{"type":"LineString","coordinates":[[-77.0114,38.867],[-77.01132,38.86702],[-76.99852,38.87628],[-76.99854,38.8763]]}},{"type":"Feature","properties":{"id":"103038","type":"AC; OVERHEAD","status":"IN SERVICE","owner":"POTOMAC ELECTRIC POWER CO","voltage":230,"voltClass":"220-287"},"geometry":{"type":"LineString","coordinates":[[-76.95776,39.00573],[-76.95786,39.00524],[-76.95798,39.00504],[-76.95898,39.00399],[-76.96097,39.00089],[-76.96267,38.99822],[-76.9641,38.99597],[-76.96607,38.99289],[-76.96754,38.99058],[-76.96896,38.98835],[-76.97031,38.98623],[-76.97235,38.98427],[-76.97403,38.98265],[-76.97616,38.9806],[-76.97792,38.97891],[-76.98105,38.97757],[-76.98357,38.97651],[-76.98589,38.97551],[-76.98775,38.97428],[-76.98969,38.97299],[-76.99189,38.97152],[-76.99479,38.97102],[-76.99626,38.96997],[-76.99735,38.97017]]}},{"type":"Feature","properties":{"id":"105100","type":"AC; OVERHEAD","status":"IN SERVICE","owner":"VIRGINIA ELECTRIC & POWER CO","voltage":230,"voltClass":"220-287"},"geometry":{"type":"LineString","coordinates":[[-77.10849,38.78485],[-77.10861,38.78469],[-77.10786,38.78448],[-77.09558,38.78914],[-77.09095,38.79212],[-77.08746,38.79415],[-77.08241,38.7975],[-77.08002,38.79784],[-77.07875,38.79844],[-77.07594,38.79825],[-77.07336,38.7989],[-77.07099,38.79968],[-77.06919,38.79907],[-77.06751,38.79829],[-77.06338,38.79668],[-77.06083,38.79602],[-77.05525,38.79509],[-77.05481,38.79623],[-77.05493,38.79659],[-77.05485,38.79708]]}},{"type":"Feature","properties":{"id":"108339","type":"AC; OVERHEAD","status":"IN SERVICE","owner":"VIRGINIA ELECTRIC & POWER CO","voltage":230,"voltClass":"220-287"},"geometry":{"type":"LineString","coordinates":[[-77.05087,38.84028],[-77.05191,38.84023],[-77.05462,38.84098],[-77.05444,38.84139],[-77.05462,38.84165]]}},{"type":"Feature","properties":{"id":"110878","type":"AC; OVERHEAD","status":"IN SERVICE","owner":"POTOMAC ELECTRIC POWER CO","voltage":230,"voltClass":"220-287"},"geometry":{"type":"LineString","coordinates":[[-76.95776,39.00573],[-76.95829,39.00541],[-76.9584,39.00523],[-76.95929,39.00413],[-76.96129,39.00101],[-76.96299,38.99834],[-76.96442,38.99609],[-76.9664,38.99301],[-76.96787,38.9907],[-76.96928,38.98848],[-76.97062,38.98638],[-76.97262,38.98445],[-76.97431,38.98282],[-76.97644,38.98078],[-76.97815,38.97913],[-76.98122,38.97781],[-76.98374,38.97675],[-76.98609,38.97574],[-76.98799,38.97449],[-76.98992,38.97321],[-76.99205,38.97178],[-76.99491,38.97128],[-76.99693,38.9705],[-76.99735,38.97017]]}},{"type":"Feature","properties":{"id":"115882","type":"AC; OVERHEAD","status":"IN SERVICE","owner":"VIRGINIA ELECTRIC & POWER CO","voltage":230,"voltClass":"220-287"},"geometry":{"type":"LineString","coordinates":[[-77.05462,38.84165],[-77.05478,38.84129],[-77.05548,38.84134],[-77.0562,38.8417],[-77.06081,38.84373],[-77.06182,38.84406],[-77.06278,38.84462],[-77.06557,38.84444],[-77.0675,38.84405],[-77.06876,38.84411],[-77.07046,38.84437],[-77.0718,38.84416],[-77.07887,38.84371],[-77.08061,38.84328],[-77.08673,38.84433],[-77.08912,38.84478],[-77.09149,38.84543],[-77.09353,38.84623],[-77.09623,38.84756],[-77.09705,38.84804],[-77.09746,38.84748],[-77.09783,38.84769]]}},{"type":"Feature","properties":{"id":"121297","type":"AC; OVERHEAD","status":"IN SERVICE","owner":"VIRGINIA ELECTRIC & POWER CO","voltage":230,"voltClass":"220-287"},"geometry":{"type":"LineString","coordinates":[[-77.05087,38.84028],[-77.05188,38.84027],[-77.05454,38.84101],[-77.05435,38.84141],[-77.05462,38.84165]]}},{"type":"Feature","properties":{"id":"122868","type":"AC; OVERHEAD","status":"IN SERVICE","owner":"VIRGINIA ELECTRIC & POWER CO","voltage":230,"voltClass":"220-287"},"geometry":{"type":"LineString","coordinates":[[-77.10849,38.78485],[-77.10871,38.78463],[-77.10784,38.78439],[-77.09553,38.78909],[-77.09092,38.79206],[-77.08741,38.7941],[-77.08239,38.79744],[-77.08,38.79777],[-77.07873,38.79837],[-77.07593,38.79817],[-77.07334,38.79883],[-77.07101,38.7996],[-77.06922,38.79901],[-77.06754,38.79822],[-77.06341,38.7966],[-77.06085,38.796],[-77.0552,38.79502],[-77.05474,38.79623],[-77.05485,38.79708]]}},{"type":"Feature","properties":{"id":"122047","type":"AC; OVERHEAD","status":"IN SERVICE","owner":"VIRGINIA ELECTRIC & POWER CO","voltage":230,"voltClass":"220-287"},"geometry":{"type":"LineString","coordinates":[[-77.09783,38.84769],[-77.09792,38.84784],[-77.09746,38.84837],[-77.09852,38.84904],[-77.10032,38.85026],[-77.1021,38.85166],[-77.10373,38.85316],[-77.10457,38.85401],[-77.10542,38.85472],[-77.10656,38.8554],[-77.10781,38.85592],[-77.11038,38.85676],[-77.11123,38.85746],[-77.11179,38.85834],[-77.11202,38.85889],[-77.11267,38.86007],[-77.11358,38.86109],[-77.1149,38.86185],[-77.11607,38.86212],[-77.11696,38.8624],[-77.11773,38.86289],[-77.11894,38.86431],[-77.11974,38.86487],[-77.12096,38.86526],[-77.12221,38.86548],[-77.12466,38.86691],[-77.12643,38.86774],[-77.1282,38.86838],[-77.12926,38.86886],[-77.12929,38.86953]]}},{"type":"Feature","properties":{"id":"122217","type":"AC; OVERHEAD","status":"IN SERVICE","owner":"POTOMAC ELECTRIC POWER CO","voltage":115,"voltClass":"100-161"},"geometry":{"type":"LineString","coordinates":[[-76.911,38.91737],[-76.91172,38.91814],[-76.91214,38.918],[-76.91301,38.9177],[-76.91387,38.9174],[-76.91473,38.91709],[-76.91547,38.91683],[-76.91634,38.91653],[-76.9172,38.91623],[-76.91808,38.91592],[-76.91894,38.91562],[-76.91981,38.91532],[-76.92067,38.91502],[-76.92183,38.91463],[-76.9224,38.91441],[-76.92327,38.9141],[-76.92413,38.91381],[-76.92489,38.91354],[-76.92575,38.91325],[-76.92662,38.91294],[-76.92749,38.91264],[-76.92835,38.91233],[-76.92921,38.91201],[-76.93005,38.91166],[-76.93088,38.91128],[-76.93167,38.91088],[-76.93208,38.91064],[-76.93326,38.90996],[-76.93532,38.90841],[-76.94231,38.90294],[-76.94508,38.90082],[-76.94744,38.89902],[-76.94913,38.89787],[-76.95041,38.89773],[-76.95307,38.89742],[-76.95678,38.8973],[-76.95785,38.89712],[-76.95802,38.89738]]}},{"type":"Feature","properties":{"id":"159794","type":"AC; UNDERGROUND","status":"IN SERVICE","owner":"POTOMAC ELECTRIC POWER CO","voltage":138,"voltClass":"100-161"},"geometry":{"type":"LineString","coordinates":[[-77.10034,38.98875],[-77.07899,38.94261]]}},{"type":"Feature","properties":{"id":"159795","type":"AC; UNDERGROUND","status":"IN SERVICE","owner":"POTOMAC ELECTRIC POWER CO","voltage":138,"voltClass":"100-161"},"geometry":{"type":"LineString","coordinates":[[-77.07899,38.94261],[-77.09249,38.97058],[-77.10034,38.98875]]}},{"type":"Feature","properties":{"id":"159796","type":"AC; UNDERGROUND","status":"IN SERVICE","owner":"POTOMAC ELECTRIC POWER CO","voltage":138,"voltClass":"100-161"},"geometry":{"type":"LineString","coordinates":[[-77.10034,38.98875],[-77.09121,38.96673],[-77.07899,38.94261]]}},{"type":"Feature","properties":{"id":"159797","type":"AC; UNDERGROUND","status":"IN SERVICE","owner":"POTOMAC ELECTRIC POWER CO","voltage":138,"voltClass":"100-161"},"geometry":{"type":"LineString","coordinates":[[-77.04845,38.90701],[-77.07899,38.94261]]}},{"type":"Feature","properties":{"id":"159775","type":"AC; UNDERGROUND","status":"IN SERVICE","owner":"POTOMAC ELECTRIC POWER CO","voltage":138,"voltClass":"100-161"},"geometry":{"type":"LineString","coordinates":[[-77.04845,38.90701],[-77.10034,38.98875]]}},{"type":"Feature","properties":{"id":"159803","type":"AC; UNDERGROUND","status":"IN SERVICE","owner":"POTOMAC ELECTRIC POWER CO","voltage":230,"voltClass":"220-287"},"geometry":{"type":"LineString","coordinates":[[-77.0114,38.867],[-76.98268,38.84552]]}},{"type":"Feature","properties":{"id":"159802","type":"AC; UNDERGROUND","status":"IN SERVICE","owner":"POTOMAC ELECTRIC POWER CO","voltage":230,"voltClass":"220-287"},"geometry":{"type":"LineString","coordinates":[[-76.98268,38.84552],[-76.9973,38.85609],[-77.0114,38.867]]}},{"type":"Feature","properties":{"id":"159912","type":"AC; UNDERGROUND","status":"IN SERVICE","owner":"POTOMAC ELECTRIC POWER CO","voltage":115,"voltClass":"100-161"},"geometry":{"type":"LineString","coordinates":[[-77.02646,38.92703],[-77.00206,38.91041]]}},{"type":"Feature","properties":{"id":"159919","type":"AC; UNDERGROUND","status":"IN SERVICE","owner":"POTOMAC ELECTRIC POWER CO","voltage":115,"voltClass":"100-161"},"geometry":{"type":"LineString","coordinates":[[-77.00206,38.91041],[-77.00203,38.91046],[-77.02642,38.92702],[-77.02646,38.92703]]}},{"type":"Feature","properties":{"id":"159916","type":"AC; UNDERGROUND","status":"IN SERVICE","owner":"POTOMAC ELECTRIC POWER CO","voltage":115,"voltClass":"100-161"},"geometry":{"type":"LineString","coordinates":[[-76.95802,38.89738],[-77.00206,38.91041]]}},{"type":"Feature","properties":{"id":"159920","type":"AC; UNDERGROUND","status":"IN SERVICE","owner":"POTOMAC ELECTRIC POWER CO","voltage":115,"voltClass":"100-161"},"geometry":{"type":"LineString","coordinates":[[-76.95802,38.89738],[-76.95808,38.89736],[-77.00207,38.91037],[-77.00206,38.91041]]}},{"type":"Feature","properties":{"id":"159917","type":"AC; UNDERGROUND","status":"IN SERVICE","owner":"POTOMAC ELECTRIC POWER CO","voltage":115,"voltClass":"100-161"},"geometry":{"type":"LineString","coordinates":[[-76.93497,38.94055],[-77.00206,38.91041]]}},{"type":"Feature","properties":{"id":"159918","type":"AC; UNDERGROUND","status":"IN SERVICE","owner":"POTOMAC ELECTRIC POWER CO","voltage":138,"voltClass":"100-161"},"geometry":{"type":"LineString","coordinates":[[-77.10034,38.98875],[-77.08444,38.95736]]}},{"type":"Feature","properties":{"id":"159942","type":"AC; UNDERGROUND","status":"IN SERVICE","owner":"POTOMAC ELECTRIC POWER CO","voltage":115,"voltClass":"100-161"},"geometry":{"type":"LineString","coordinates":[[-76.93497,38.94055],[-77.02646,38.92703]]}},{"type":"Feature","properties":{"id":"159943","type":"AC; UNDERGROUND","status":"IN SERVICE","owner":"POTOMAC ELECTRIC POWER CO","voltage":115,"voltClass":"100-161"},"geometry":{"type":"LineString","coordinates":[[-76.93497,38.94055],[-76.89441,38.96383]]}},{"type":"Feature","properties":{"id":"159940","type":"AC; UNDERGROUND","status":null,"owner":"POTOMAC ELECTRIC POWER CO","voltage":138,"voltClass":"100-161"},"geometry":{"type":"LineString","coordinates":[[-76.99854,38.8763],[-77.02553,38.90391]]}},{"type":"Feature","properties":{"id":"159941","type":"AC; UNDERGROUND","status":"IN SERVICE","owner":"POTOMAC ELECTRIC POWER CO","voltage":138,"voltClass":"100-161"},"geometry":{"type":"LineString","coordinates":[[-76.99854,38.8763],[-77.04845,38.90701]]}},{"type":"Feature","properties":{"id":"128999","type":"AC; OVERHEAD","status":"IN SERVICE","owner":"VIRGINIA ELECTRIC & POWER CO","voltage":230,"voltClass":"220-287"},"geometry":{"type":"LineString","coordinates":[[-77.09783,38.84769],[-77.09811,38.84791],[-77.09753,38.84836],[-77.09856,38.84901],[-77.10036,38.85024],[-77.10215,38.85163],[-77.10379,38.85314],[-77.10462,38.85399],[-77.10546,38.85469],[-77.10659,38.85537],[-77.10782,38.85588],[-77.11042,38.85673],[-77.11129,38.85745],[-77.11186,38.85834],[-77.1121,38.85891],[-77.11273,38.86007],[-77.11362,38.86107],[-77.11492,38.86181],[-77.11608,38.86208],[-77.11698,38.86237],[-77.11778,38.86287],[-77.11899,38.86429],[-77.11977,38.86484],[-77.12097,38.86522],[-77.12223,38.86544],[-77.12469,38.86688],[-77.12645,38.8677],[-77.12822,38.86834],[-77.12929,38.86882],[-77.12966,38.86904],[-77.12929,38.86953]]}},{"type":"Feature","properties":{"id":"132529","type":"AC; OVERHEAD","status":"IN SERVICE","owner":"VIRGINIA ELECTRIC & POWER CO","voltage":230,"voltClass":"220-287"},"geometry":{"type":"LineString","coordinates":[[-77.05462,38.84165],[-77.05486,38.84134],[-77.05547,38.84138],[-77.05617,38.84174],[-77.06079,38.84377],[-77.0618,38.84409],[-77.06277,38.84466],[-77.0656,38.84448],[-77.06752,38.8441],[-77.06877,38.84415],[-77.07047,38.84442],[-77.07183,38.84421],[-77.0789,38.84376],[-77.08063,38.84332],[-77.08673,38.84438],[-77.08911,38.84482],[-77.09147,38.84547],[-77.0935,38.84627],[-77.0962,38.84759],[-77.09708,38.8481],[-77.09753,38.84761],[-77.09783,38.84769]]}},{"type":"Feature","properties":{"id":"161201","type":"AC; UNDERGROUND","status":"IN SERVICE","owner":"POTOMAC ELECTRIC POWER CO","voltage":115,"voltClass":"100-161"},"geometry":{"type":"LineString","coordinates":[[-77.00206,38.91041],[-77.00198,38.91041],[-76.93495,38.9405],[-76.93497,38.94055]]}},{"type":"Feature","properties":{"id":"161202","type":"AC; UNDERGROUND","status":"IN SERVICE","owner":"POTOMAC ELECTRIC POWER CO","voltage":138,"voltClass":"100-161"},"geometry":{"type":"LineString","coordinates":[[-77.08444,38.95736],[-77.08439,38.95738],[-77.10029,38.98877],[-77.10034,38.98875]]}},{"type":"Feature","properties":{"id":"136718","type":"AC; OVERHEAD","status":"IN SERVICE","owner":"VIRGINIA ELECTRIC & POWER CO","voltage":230,"voltClass":"220-287"},"geometry":{"type":"LineString","coordinates":[[-77.06026,38.79915],[-77.06031,38.79908],[-77.06061,38.79717],[-77.06086,38.7961],[-77.07078,38.79988],[-77.07599,38.79841],[-77.07883,38.79857],[-77.08009,38.79799],[-77.0825,38.79766],[-77.09567,38.78928],[-77.10619,38.78527],[-77.10803,38.78479],[-77.10849,38.78485]]}},{"type":"Feature","properties":{"id":"135058","type":"AC; OVERHEAD","status":"IN SERVICE","owner":"POTOMAC ELECTRIC POWER CO","voltage":230,"voltClass":"220-287"},"geometry":{"type":"LineString","coordinates":[[-76.95776,39.00573],[-76.95776,39.00521],[-76.95789,39.005],[-76.95889,39.00395],[-76.96088,39.00085],[-76.96257,38.99818],[-76.964,38.99593],[-76.96598,38.99285],[-76.96745,38.99054],[-76.96887,38.98831],[-76.97022,38.98618],[-76.97226,38.98422],[-76.97394,38.9826],[-76.97607,38.98055],[-76.97784,38.97884],[-76.981,38.9775],[-76.98352,38.97643],[-76.98583,38.97544],[-76.98768,38.97421],[-76.98962,38.97293],[-76.99184,38.97144],[-76.99475,38.97094],[-76.9961,38.96983],[-76.99735,38.97017]]}},{"type":"Feature","properties":{"id":"174658","type":"AC; OVERHEAD","status":"IN SERVICE","owner":"POTOMAC ELECTRIC POWER CO","voltage":115,"voltClass":"100-161"},"geometry":{"type":"LineString","coordinates":[[-76.98262,38.91841],[-76.98255,38.91785],[-76.98213,38.91708],[-76.98048,38.91758],[-76.97894,38.91795],[-76.97707,38.9182],[-76.97612,38.91828],[-76.97424,38.91836],[-76.97237,38.91831],[-76.97041,38.91818],[-76.96941,38.91829],[-76.96543,38.91812],[-76.96151,38.91793],[-76.9596,38.91783],[-76.95768,38.91775],[-76.952,38.91748],[-76.94806,38.91728],[-76.94259,38.91705],[-76.93898,38.91689],[-76.93361,38.91664],[-76.9321,38.91659],[-76.93015,38.91647],[-76.92614,38.9163],[-76.92415,38.91626],[-76.92324,38.91627],[-76.92227,38.91633],[-76.92038,38.91648],[-76.91852,38.91673],[-76.91672,38.91711],[-76.91582,38.91729],[-76.91406,38.9178],[-76.9123,38.9183],[-76.91143,38.91864],[-76.90975,38.91928],[-76.90813,38.92005],[-76.90653,38.92093],[-76.90497,38.92191],[-76.9035,38.92296],[-76.90145,38.92472],[-76.90024,38.92595],[-76.89903,38.9272],[-76.89844,38.92782],[-76.89806,38.92901],[-76.89752,38.92907]]}},{"type":"Feature","properties":{"id":"134769","type":"AC; OVERHEAD","status":"IN SERVICE","owner":"POTOMAC ELECTRIC POWER CO","voltage":115,"voltClass":"100-161"},"geometry":{"type":"LineString","coordinates":[[-76.911,38.91737],[-76.91127,38.9183],[-76.91041,38.91861],[-76.90955,38.91892],[-76.90871,38.91927],[-76.9079,38.91964],[-76.90711,38.92005],[-76.90634,38.92049],[-76.9056,38.92095],[-76.9049,38.92144],[-76.90422,38.92195],[-76.90357,38.92249],[-76.90281,38.9233],[-76.90199,38.92404],[-76.90132,38.92465],[-76.89829,38.92776],[-76.89755,38.92871],[-76.89752,38.92907]]}}]}